{"fetched_at":"2026-03-29T16:36:15Z","count":15609,"tles":[{"name":"STARLINK-4762","line1":"1 53866U 22114BA  26087.66259227 -.00003244  00000+0 -18573-3 0  9991","line2":"2 53866  53.2178 179.1553 0001477  93.0199 267.0963 15.08851992196251","category":"Starlink"}]}